QIANFAN-73              
1 63159U 25046A   25363.56612677  .00000209  00000+0  30447-3 0  9991
2 63159  88.9777 318.2817 0016996  75.6307 284.6730 13.50981923 49689
QIANFAN-74              
1 63160U 25046B   25363.54953233  .00000216  00000+0  31576-3 0  9999
2 63160  88.9777 318.1722 0001992  72.1816 287.9553 13.50978829 49749
QIANFAN-75              
1 63161U 25046C   25363.46271982  .00000263  00000+0  38882-3 0  9994
2 63161  88.9778 318.4150 0018150  78.3998 281.9189 13.50984551 49605
QIANFAN-76              
1 63162U 25046D   25363.45936794  .00000214  00000+0  31251-3 0  9992
2 63162  88.9777 318.3959 0015693  78.8916 281.3999 13.50984176 49612
QIANFAN-77              
1 63163U 25046E   25363.52884288  .00000639  00000+0  45524-3 0  9990
2 63163  88.9778 316.2581 0016381  34.4060 325.8174 13.96102642 50795
QIANFAN-78              
1 63164U 25046F   25363.57432772  .00000238  00000+0  34939-3 0  9996
2 63164  88.9776 318.2479 0017058  80.6380 279.6699 13.50982544 49706
QIANFAN-79              
1 63165U 25046G   25363.52890321  .00000230  00000+0  33653-3 0  9994
2 63165  88.9780 318.3607 0016767  79.1914 281.1124 13.50984281 49642
QIANFAN-80              
1 63166U 25046H   25363.54544788  .00000240  00000+0  35346-3 0  9992
2 63166  88.9778 318.0655 0015719  82.8241 277.4697 13.50982361 49808
